     2.10           NAVIGATION                              RINEX VERSION / TYPE
fic2rin                                 08/07/2008 03:19:45 PGM / RUN BY / DATE
                                                            END OF HEADER
14 08  8  6 20  0  0.0 -.235293991864D-03  .454747350886D-11  .000000000000D+00
     .950000000000D+02 -.304375000000D+02  .363979446919D-08  .696207619088D+00
    -.176951289177D-05  .397530850023D-02  .956840813160D-05  .515372604370D+04
     .331200000000D+06 -.614672899246D-07  .709129877306D+00  .298023223877D-07
     .989319910128D+00  .208812500000D+03 -.219101528780D+01 -.772246452879D-08
    -.217866217860D-10  .100000000000D+01  .149100000000D+04  .000000000000D+00
     .340000000000D+01  .000000000000D+00 -.884756445885D-08  .950000000000D+02
     .324006000000D+06  .400000000000D+01
15 08  8  6 20  0  0.0 -.155502930284D-03 -.648014975013D-11  .000000000000D+00
     .600000000000D+02 -.293125000000D+02  .430589364347D-08  .159079882910D+01
    -.149197876453D-05  .732890912332D-03  .853650271893D-05  .515369125557D+04
     .331200000000D+06  .242143869400D-07  .665869935561D+00 -.186264514923D-07
     .957663923826D+00  .213437500000D+03 -.123270322983D+01 -.801319092442D-08
     .210723063176D-10  .100000000000D+01  .149100000000D+04  .000000000000D+00
     .240000000000D+01  .000000000000D+00 -.977888703346D-08  .600000000000D+02
     .324006000000D+06  .400000000000D+01
16 08  8  6 20  0  0.0  .113457441330D-03 -.181898940355D-11  .000000000000D+00
     .700000000000D+02 -.420000000000D+02  .484984487265D-08  .249515502168D+01
    -.198371708393D-05  .475489604287D-02  .614859163761D-05  .515364122772D+04
     .331200000000D+06  .130385160446D-07  .279188895807D+01  .182539224625D-06
     .966372716114D+00  .263656250000D+03 -.427689440125D+00 -.816712590786D-08
    -.105361531588D-09  .100000000000D+01  .149100000000D+04  .000000000000D+00
     .240000000000D+01  .000000000000D+00 -.977888703346D-08  .700000000000D+02
     .324006000000D+06  .400000000000D+01
17 08  8  6 20  0  0.0  .389227643609D-04  .000000000000D+00  .000000000000D+00
     .950000000000D+02 -.128750000000D+02  .456304721209D-08  .126168056777D+01
    -.547617673874D-06  .375530344900D-02  .104531645775D-04  .515357944870D+04
     .331200000000D+06 -.204890966415D-07 -.245045390082D+01  .484287738800D-07
     .959771972687D+00  .178312500000D+03 -.277287996732D+01 -.798176104381D-08
    -.319299014371D-09  .100000000000D+01  .149100000000D+04  .000000000000D+00
     .240000000000D+01  .000000000000D+00 -.102445483208D-07  .950000000000D+02
     .324006000000D+06  .400000000000D+01
19 08  8  6 20  0  0.0  .344212166965D-04  .454747350886D-12  .000000000000D+00
     .230000000000D+02 -.387500000000D+01  .458876256895D-08  .838839451750D+00
    -.398606061935D-06  .487696111668D-02  .106096267700D-04  .515371750069D+04
     .331200000000D+06  .894069671631D-07 -.239357526700D+01 -.614672899246D-07
     .957509565488D+00  .168625000000D+03 -.544155446876D+00 -.796676041898D-08
    -.350371737246D-09  .100000000000D+01  .149100000000D+04  .000000000000D+00
     .240000000000D+01  .000000000000D+00 -.144354999065D-07  .230000000000D+02
     .324006000000D+06  .400000000000D+01
20 08  8  6 20  0  0.0  .108182430267D-03 -.102318153949D-11  .000000000000D+00
     .730000000000D+02 -.468750000000D+00  .486591697069D-08  .271299004683D+01
     .391155481339D-07  .355818460230D-02  .375881791115D-05  .515379409027D+04
     .331200000000D+06  .111758708954D-07 -.387414044367D+00  .689178705215D-07
     .946338532856D+00  .297625000000D+03  .137933266901D+01 -.837856328651D-08
    -.141077305007D-09  .100000000000D+01  .149100000000D+04  .000000000000D+00
     .240000000000D+01  .000000000000D+00 -.651925802231D-08  .730000000000D+02
     .324006000000D+06  .400000000000D+01
21 08  8  6 20  0  0.0  .553932040930D-04 -.136424205266D-11  .000000000000D+00
     .710000000000D+02  .783750000000D+02  .503735268310D-08 -.243523001310D+01
     .390782952309D-05  .142130074091D-01  .669807195663D-05  .515369944191D+04
     .331200000000D+06 -.186264514923D-08 -.139226258706D+01 -.175088644028D-06
     .935402471199D+00  .236937500000D+03 -.268992330901D+01 -.822248535666D-08
     .190007914592D-09  .100000000000D+01  .149100000000D+04  .000000000000D+00
     .240000000000D+01  .000000000000D+00 -.116415321827D-07  .710000000000D+02
     .324006000000D+06  .400000000000D+01
22 08  8  6 20  0  0.0  .211385544389D-03 -.227373675443D-12  .000000000000D+00
     .650000000000D+02 -.155937500000D+02  .499806533234D-08  .141420882912D+01
    -.832602381706D-06  .502808392048D-02  .430457293987D-05  .515366493416D+04
     .331200000000D+06 -.117346644402D-06 -.327448809934D+00 -.104308128357D-06
     .944487907838D+00  .287656250000D+03 -.183200432460D+01 -.853892710916D-08
    -.217151902391D-09  .100000000000D+01  .149100000000D+04  .000000000000D+00
     .340000000000D+01  .000000000000D+00 -.181607902050D-07  .650000000000D+02
     .324006000000D+06  .400000000000D+01
23 08  8  6 20  0  0.0  .367830507457D-03  .170530256582D-11  .000000000000D+00
     .118000000000D+03 -.451250000000D+02  .405909764914D-08  .156095063357D+00
    -.230595469475D-05  .582054094411D-02  .870972871780D-05  .515371166611D+04
     .331200000000D+06  .968575477600D-07  .681757971990D+00 -.391155481339D-07
     .971443419855D+00  .215625000000D+03  .278915986976D+01 -.799569019545D-08
     .357157734196D-12  .100000000000D+01  .149100000000D+04  .000000000000D+00
     .240000000000D+01  .000000000000D+00 -.200234353542D-07  .118000000000D+03
     .324006000000D+06  .400000000000D+01
24 08  8  6 20  0  0.0  .115111470222D-03  .284217094304D-11  .000000000000D+00
     .184000000000D+03  .784062500000D+02  .464733643736D-08  .250850138716D+01
     .420026481152D-05  .761435506865D-02  .675395131111D-05  .515366643715D+04
     .331200000000D+06 -.167638063431D-07 -.136508456228D+01  .763684511185D-07
     .952056469591D+00  .246906250000D+03 -.724976464877D+00 -.804176354316D-08
    -.214294640518D-10  .100000000000D+01  .149100000000D+04  .000000000000D+00
     .340000000000D+01  .000000000000D+00 -.139698386192D-08  .184000000000D+03
     .324006000000D+06  .400000000000D+01
25 08  8  6 20  0  0.0 -.213293824345D-03 -.106865627458D-10  .000000000000D+00
     .108000000000D+03  .953125000000D+01  .440232623170D-08  .300752103048D+01
     .387430191040D-06  .116143184714D-01  .781752169132D-05  .515369756126D+04
     .331200000000D+06  .238418579102D-06  .163027997591D+01  .132247805595D-06
     .965533952033D+00  .227718750000D+03 -.124837163836D+01 -.784925552443D-08
     .450375902821D-09  .100000000000D+01  .149100000000D+04  .000000000000D+00
     .485000000000D+01  .000000000000D+00 -.745058059692D-08  .108000000000D+03
     .324006000000D+06  .400000000000D+01
26 08  8  6 20  0  0.0  .305491033942D-03  .636646291241D-11  .000000000000D+00
     .520000000000D+02 -.189687500000D+02  .365015204348D-08 -.410028228487D+00
    -.791624188423D-06  .191451016581D-01  .902637839317D-05  .515362667274D+04
     .331200000000D+06 -.931322574615D-08  .725306382162D+00  .262632966042D-06
     .993539164826D+00  .228406250000D+03  .950711559261D+00 -.796283168390D-08
     .728601777760D-10  .100000000000D+01  .149100000000D+04  .000000000000D+00
     .240000000000D+01  .000000000000D+00 -.605359673500D-08  .520000000000D+02
     .324006000000D+06  .400000000000D+01
27 08  8  6 20  0  0.0  .208194833249D-03  .272848410532D-11  .000000000000D+00
     .470000000000D+02  .671875000000D+01  .430732227440D-08  .299576773304D+01
     .132247805595D-06  .211259694770D-01  .746361911297D-05  .515374435806D+04
     .331200000000D+06  .357627868652D-06  .166532272582D+01 -.169500708580D-06
     .970133130945D+00  .238625000000D+03 -.169463993182D+01 -.762496046735D-08
     .419303179946D-09  .100000000000D+01  .149100000000D+04  .000000000000D+00
     .240000000000D+01  .000000000000D+00 -.419095158577D-08  .470000000000D+02
     .324006000000D+06  .400000000000D+01
28 08  8  6 20  0  0.0 -.216569751501D-04 -.227373675443D-12  .000000000000D+00
     .530000000000D+02 -.406562500000D+02  .483305845914D-08  .174119336591D+01
    -.223703682423D-05  .138726355508D-01  .595673918724D-05  .515371338272D+04
     .331200000000D+06 -.331550836563D-06  .280046066762D+01 -.223517417908D-06
     .964536452563D+00  .271218750000D+03 -.209338486773D+01 -.821855662159D-08
    -.346443002170D-10  .100000000000D+01  .149100000000D+04  .000000000000D+00
     .340000000000D+01  .000000000000D+00 -.102445483208D-07  .530000000000D+02
     .324006000000D+06  .400000000000D+01
29 08  8  6 20  0  0.0 -.403891317546D-04  .795807864051D-12  .000000000000D+00
     .104000000000D+03  .178125000000D+01  .442518432669D-08 -.232103996895D+01
    -.745058059692D-08  .365363154560D-02  .106468796730D-04  .515362603378D+04
     .331200000000D+06  .260770320892D-07 -.244229129192D+01  .726431608200D-07
     .959899980944D+00  .173281250000D+03 -.138469904458D+01 -.779711049523D-08
    -.227509476683D-09  .100000000000D+01  .149100000000D+04  .000000000000D+00
     .240000000000D+01  .000000000000D+00 -.884756445885D-08  .104000000000D+03
     .324006000000D+06  .400000000000D+01
30 08  8  6 20  0  0.0  .897757709026D-04  .193267624127D-11  .000000000000D+00
     .290000000000D+02 -.438437500000D+02  .507128266785D-08  .220846794291D+01
    -.246241688728D-05  .109420929803D-01  .540167093277D-05  .515370071793D+04
     .331200000000D+06  .838190317154D-07  .273245362036D+01 -.171363353729D-06
     .949555935902D+00  .267531250000D+03  .138623311753D+01 -.818069790176D-08
    -.103932900651D-09  .100000000000D+01  .149100000000D+04  .000000000000D+00
     .240000000000D+01  .000000000000D+00 -.838190317154D-08  .290000000000D+02
     .324006000000D+06  .400000000000D+01
